{"type":"FeatureCollection","attribution":"Natural Earth (pubblico dominio); città: © OpenStreetMap contributors","features":[{"type":"Feature","properties":{"k":"lake","name":"Lago Maggiore"},"geometry":{"type":"Polygon","coordinates":[[[8.84609,46.16907],[8.84785,46.1673],[8.84903,46.16495],[8.84167,46.15435],[8.78015,46.11755],[8.75336,46.0996],[8.74777,46.0943],[8.746,46.09253],[8.74483,46.09018],[8.74188,46.08341],[8.74188,46.06398],[8.74394,46.05338],[8.75277,46.02895],[8.75307,46.02718],[8.75336,46.01747],[8.75307,46.016],[8.75277,46.0157],[8.75219,46.01423],[8.75042,46.0107],[8.746,46.00393],[8.73806,45.99451],[8.73246,45.9898],[8.7201,45.98156],[8.64857,45.94506],[8.61884,45.92268],[8.61678,45.92033],[8.60795,45.90855],[8.60795,45.90826],[8.60795,45.90826],[8.60795,45.90767],[8.60736,45.90708],[8.60648,45.90591],[8.60618,45.90532],[8.60442,45.88265],[8.62149,45.84703],[8.62149,45.82702],[8.61825,45.81966],[8.61325,45.81406],[8.60736,45.80994],[8.58028,45.79846],[8.57498,45.79434],[8.57498,45.79434],[8.57498,45.79405],[8.57498,45.79405],[8.57292,45.7911],[8.57115,45.78787],[8.57027,45.78374],[8.57027,45.77903],[8.57056,45.77845],[8.57204,45.77639],[8.57204,45.7755],[8.57262,45.77432],[8.57674,45.76814],[8.57704,45.76755],[8.57763,45.76667],[8.6206,45.72546],[8.61854,45.72399],[8.61648,45.7234],[8.61442,45.72311],[8.61207,45.72222],[8.59411,45.72988],[8.5788,45.74194],[8.56615,45.75696],[8.55585,45.77344],[8.54878,45.7911],[8.55202,45.80052],[8.55997,45.80759],[8.56703,45.81848],[8.57439,45.85204],[8.56644,45.86999],[8.52111,45.89766],[8.51375,45.90502],[8.4955,45.92975],[8.49285,45.9377],[8.49432,45.93976],[8.49638,45.94123],[8.49874,45.94241],[8.50139,45.9427],[8.50374,45.943],[8.51463,45.94123],[8.54054,45.93299],[8.56026,45.9321],[8.59146,45.943],[8.6156,45.95506],[8.62708,45.9636],[8.6783,46.0104],[8.68772,46.01482],[8.69655,46.02041],[8.71362,46.03866],[8.71392,46.05191],[8.70685,46.06457],[8.70038,46.08105],[8.70008,46.08871],[8.70038,46.09165],[8.70038,46.09194],[8.71068,46.11049],[8.73335,46.13051],[8.76337,46.14934],[8.79516,46.16436],[8.83137,46.17172],[8.84108,46.17142],[8.84373,46.17024],[8.84609,46.16907]]]}},{"type":"Feature","properties":{"k":"lake","name":"Lago di Como"},"geometry":{"type":"Polygon","coordinates":[[[9.12916,45.88233],[9.14161,45.89503],[9.13832,45.90815],[9.13111,45.93372],[9.15162,45.96558],[9.18483,45.97657],[9.20094,45.98231],[9.21437,45.98926],[9.23097,45.99537],[9.23732,46.00635],[9.23646,46.02851],[9.24464,46.047],[9.25685,46.05823],[9.27076,46.07349],[9.27931,46.10267],[9.28541,46.13428],[9.29884,46.14429],[9.30763,46.15162],[9.32435,46.15797],[9.33924,46.16254],[9.34889,46.17225],[9.37013,46.17499],[9.37989,46.16193],[9.37306,46.14857],[9.35572,46.14246],[9.32862,46.13428],[9.31703,46.1233],[9.31617,46.10389],[9.30543,46.08717],[9.30616,46.07862],[9.31312,46.06715],[9.30763,46.05347],[9.29371,46.0398],[9.28492,46.02576],[9.2942,45.9972],[9.30299,45.96741],[9.30787,45.95374],[9.31373,45.9358],[9.32032,45.92091],[9.33107,45.91114],[9.34132,45.90357],[9.36317,45.89417],[9.3838,45.87049],[9.39235,45.85706],[9.40821,45.84156],[9.41285,45.81934],[9.4004,45.81971],[9.39637,45.83973],[9.38148,45.85889],[9.36598,45.86951],[9.35621,45.88135],[9.33546,45.89112],[9.3097,45.90571],[9.28199,45.94733],[9.2693,45.97651],[9.26466,45.98475],[9.24684,45.98499],[9.22316,45.96802],[9.19825,45.95679],[9.1681,45.94947],[9.15406,45.93336],[9.15602,45.89905],[9.14747,45.87073],[9.12709,45.86652],[9.10609,45.85401],[9.08937,45.8379],[9.08302,45.82886],[9.07594,45.82276],[9.06752,45.82667],[9.07325,45.84217],[9.08473,45.85407],[9.09242,45.86072],[9.10694,45.87232],[9.11915,45.87745],[9.12916,45.88233],[9.12916,45.88233]]]}},{"type":"Feature","properties":{"k":"lake","name":"Lago di Lugano"},"geometry":{"type":"Polygon","coordinates":[[[8.96559,45.95277],[8.97511,45.93848],[8.98304,45.92152],[8.97731,45.91425],[8.97145,45.92396],[8.96022,45.93885],[8.92799,45.92792],[8.9015,45.91273],[8.89271,45.9419],[8.886,45.97437],[8.88966,45.9817],[8.89454,45.9911],[8.90333,45.99934],[8.90638,45.98749],[8.90309,45.9665],[8.90272,45.95008],[8.90882,45.93641],[8.92494,45.93641],[8.93922,45.95313],[8.95167,45.97498],[8.95326,45.99811],[8.96046,46.0124],[8.97413,46.01118],[8.98976,46.01087],[9.02162,46.02332],[9.06666,46.03339],[9.1045,46.03944],[9.12184,46.04127],[9.11061,46.02637],[9.06837,46.01783],[9.03932,46.01697],[9.00709,46.0033],[8.97145,45.97498],[8.96559,45.95277],[8.96559,45.95277]]]}},{"type":"Feature","properties":{"k":"river","name":"Rhône"},"geometry":{"type":"MultiLineString","coordinates":[[[8.37859,46.5788],[8.36915,46.56452],[8.3567,46.55642],[8.34816,46.54348],[8.32545,46.52721],[8.29265,46.50865],[8.26116,46.48884],[8.2505,46.48225]]]}},{"type":"Feature","properties":{"k":"river","name":"Ticino"},"geometry":{"type":"MultiLineString","coordinates":[[[8.62054,45.72639],[8.59246,45.73847],[8.5866,45.74421],[8.56886,45.76582],[8.56292,45.79291],[8.57374,45.81171],[8.5844,45.82477],[8.5949,45.8415],[8.59588,45.86335],[8.58375,45.88618],[8.57765,45.9051],[8.58741,45.92219],[8.60735,45.93635],[8.62835,45.94575],[8.65252,45.96467],[8.70167,46.00043],[8.72999,46.03596],[8.72389,46.06123],[8.72609,46.08727],[8.73756,46.10965],[8.7614,46.12836],[8.78606,46.1444],[8.81707,46.15986],[8.84319,46.1717]]]}},{"type":"Feature","properties":{"k":"river","name":"Ticino"},"geometry":{"type":"MultiLineString","coordinates":[[[8.40398,46.49596],[8.42726,46.48908],[8.4524,46.48872],[8.48024,46.49759],[8.51442,46.51183],[8.52727,46.52281],[8.56959,46.5351],[8.61402,46.54304],[8.67604,46.54169],[8.70973,46.53543],[8.73439,46.52403],[8.75685,46.51057],[8.80633,46.49177],[8.82976,46.47602],[8.87941,46.42532],[8.93409,46.39118],[8.96258,46.36526],[8.98487,46.33596],[9.0254,46.2663],[9.04314,46.25003],[9.04811,46.24067],[9.04119,46.2309],[9.03224,46.22309],[9.01857,46.20502],[9.01075,46.19843],[8.98414,46.18915],[8.84319,46.1717]]]}},{"type":"Feature","properties":{"k":"river","name":"Inn"},"geometry":{"type":"MultiLineString","coordinates":[[[9.74602,46.40318],[9.7444,46.42467]]]}},{"type":"Feature","properties":{"k":"river","name":"Ticino"},"geometry":{"type":"MultiLineString","coordinates":[[[8.62054,45.72639],[8.64251,45.7215],[8.64967,45.71349],[8.64845,45.68517],[8.65309,45.67776],[8.67254,45.67068],[8.67994,45.6623],[8.68255,45.64802],[8.67872,45.63976],[8.67425,45.63239],[8.67408,45.62031],[8.67775,45.61559],[8.69264,45.6046],[8.69752,45.5998],[8.69923,45.59345],[8.69825,45.581],[8.70069,45.57539],[8.70818,45.56245],[8.72022,45.51911],[8.72731,45.50983],[8.73699,45.50499],[8.75807,45.49763],[8.77858,45.48107],[8.81593,45.4219]]]}},{"type":"Feature","properties":{"k":"border"},"geometry":{"type":"MultiLineString","coordinates":[[[8.05603,46.09807],[8.06688,46.1006],[8.1106,46.12695],[8.1323,46.15935],[8.12951,46.19604],[8.09995,46.23563],[8.07659,46.24974],[8.07308,46.25361],[8.07732,46.26204],[8.08734,46.2718],[8.10687,46.28555],[8.12848,46.29247],[8.17188,46.29919],[8.19255,46.30916],[8.24175,46.35412],[8.27007,46.36404],[8.28154,46.37012],[8.29146,46.37836],[8.29746,46.38751],[8.29704,46.39763],[8.29043,46.40112],[8.28661,46.40536],[8.29498,46.41805],[8.31627,46.43365],[8.34345,46.44389],[8.38591,46.45021],[8.39916,46.45218],[8.42789,46.44869],[8.44163,46.43495],[8.44577,46.41236],[8.44629,46.38218],[8.44287,46.35337],[8.42665,46.30157],[8.42324,46.27583],[8.42717,46.25144],[8.43812,46.23537],[8.45652,46.22483],[8.48267,46.21754],[8.51026,46.20788],[8.53868,46.18762],[8.60183,46.12282],[8.61155,46.11936],[8.63087,46.11471],[8.67749,46.09579],[8.69506,46.09517],[8.70219,46.09796],[8.71769,46.10752],[8.72389,46.10954],[8.72898,46.10823],[8.73216,46.10742],[8.7395,46.09807],[8.74715,46.09445],[8.76317,46.0929],[8.79386,46.09342],[8.80895,46.08975],[8.83438,46.06639],[8.8196,46.04293],[8.79097,46.01869],[8.7734,45.99058],[8.76957,45.98577],[8.76792,45.98309],[8.78508,45.98231],[8.80037,45.97854],[8.85773,45.95709],[8.86445,45.95342],[8.87096,45.94707],[8.88078,45.9311],[8.89814,45.90955],[8.90652,45.89648],[8.9121,45.8834],[8.91375,45.86609],[8.90972,45.85369],[8.90373,45.8418],[8.9,45.8264],[8.93959,45.83483],[8.97235,45.82465],[9.00243,45.82072],[9.03436,45.84811],[9.05927,45.88196],[9.0631,45.89896],[9.05173,45.91555],[9.04232,45.91973],[9.02051,45.92278],[9.0108,45.92666],[9.0017,45.93606],[8.99344,45.95425],[8.98269,45.96185],[8.98052,45.96438],[8.97979,45.96691],[8.98052,45.9695],[8.98269,45.97198],[9.01555,45.99311],[8.99778,46.02794],[9.00212,46.03931],[9.02775,46.05311],[9.04966,46.05791],[9.05917,46.06179],[9.06713,46.07114],[9.07033,46.08344],[9.06816,46.10597],[9.07209,46.11889],[9.09059,46.13817],[9.16324,46.17227],[9.16379,46.17299],[9.1711,46.18261],[9.17575,46.19413],[9.18133,46.20405],[9.19218,46.20964],[9.20417,46.21356],[9.21575,46.22106],[9.22484,46.23118],[9.23973,46.267],[9.26897,46.30937],[9.27518,46.33139],[9.27383,46.34425],[9.2604,46.37973],[9.26029,46.39402],[9.26288,46.40663],[9.26091,46.41665],[9.24758,46.42303],[9.23797,46.43655],[9.24582,46.46104],[9.26319,46.48512],[9.28231,46.49737],[9.33099,46.5015],[9.35083,46.49786],[9.35155,46.48548],[9.37708,46.46869],[9.38463,46.46642],[9.39548,46.46941],[9.40034,46.47541],[9.40385,46.48251],[9.41067,46.4889],[9.42679,46.49711],[9.43465,46.49833],[9.43785,46.49205],[9.44385,46.39614],[9.4424,46.38089],[9.44436,46.37528],[9.4516,46.37038],[9.47372,46.36187],[9.4826,46.35681],[9.50255,46.32074],[9.51526,46.3086],[9.53645,46.29862],[9.5597,46.29273],[9.67432,46.2918],[9.69313,46.29707],[9.70843,46.31175],[9.70884,46.31963],[9.70729,46.33097],[9.70926,46.34239],[9.72011,46.35089],[9.73086,46.35071],[9.75525,46.34053],[9.76807,46.33862],[9.78884,46.3433],[9.8554,46.36696],[9.89901,46.37216]]]}},{"type":"Feature","properties":{"k":"place","name":"Varese","rank":1,"osm":"relation/45347"},"geometry":{"type":"Point","coordinates":[8.75418,45.83991]}},{"type":"Feature","properties":{"k":"place","name":"Como","rank":1,"osm":"relation/45614"},"geometry":{"type":"Point","coordinates":[9.14936,45.93959]}},{"type":"Feature","properties":{"k":"place","name":"Bellinzona","rank":1,"osm":"relation/1684625"},"geometry":{"type":"Point","coordinates":[9.02059,46.19205]}},{"type":"Feature","properties":{"k":"place","name":"Locarno","rank":1,"osm":"relation/1684697"},"geometry":{"type":"Point","coordinates":[8.79549,46.16957]}},{"type":"Feature","properties":{"k":"place","name":"Mendrisio","rank":2,"osm":"relation/2888450"},"geometry":{"type":"Point","coordinates":[8.98753,45.87097]}},{"type":"Feature","properties":{"k":"place","name":"Chiasso","rank":2,"osm":"relation/1684659"},"geometry":{"type":"Point","coordinates":[9.02902,45.83552]}},{"type":"Feature","properties":{"k":"place","name":"Luino","rank":2,"osm":"relation/46665"},"geometry":{"type":"Point","coordinates":[8.73991,45.99891]}},{"type":"Feature","properties":{"k":"place","name":"Ponte Tresa","rank":2,"osm":"node/59822785"},"geometry":{"type":"Point","coordinates":[8.85903,45.97015]}},{"type":"Feature","properties":{"k":"place","name":"Porlezza","rank":2,"osm":"relation/46695"},"geometry":{"type":"Point","coordinates":[9.11839,46.03607]}},{"type":"Feature","properties":{"k":"place","name":"Menaggio","rank":2,"osm":"relation/46705"},"geometry":{"type":"Point","coordinates":[9.23895,46.01978]}},{"type":"Feature","properties":{"k":"place","name":"Tesserete","rank":2,"osm":"node/441785427"},"geometry":{"type":"Point","coordinates":[8.96645,46.06738]}},{"type":"Feature","properties":{"k":"place","name":"Morcote","rank":2,"osm":"relation/1684723"},"geometry":{"type":"Point","coordinates":[8.91505,45.92268]}},{"type":"Feature","properties":{"k":"place","name":"Riva San Vitale","rank":2,"osm":"relation/1684747"},"geometry":{"type":"Point","coordinates":[8.97055,45.90577]}},{"type":"Feature","properties":{"k":"place","name":"Lavena Ponte Tresa","rank":2,"osm":"relation/46572"},"geometry":{"type":"Point","coordinates":[8.86172,45.95953]}},{"type":"Feature","properties":{"k":"place","name":"Taverne","rank":2,"osm":"relation/1684764"},"geometry":{"type":"Point","coordinates":[8.92476,46.06568]}},{"type":"Feature","properties":{"k":"place","name":"Maroggia","rank":2,"osm":"relation/1684708"},"geometry":{"type":"Point","coordinates":[8.97135,45.93288]}},{"type":"Feature","properties":{"k":"place","name":"Cernobbio","rank":2,"osm":"relation/46295"},"geometry":{"type":"Point","coordinates":[9.0759,45.84139]}},{"type":"Feature","properties":{"k":"place","name":"Arzo","rank":2,"osm":"node/575192133"},"geometry":{"type":"Point","coordinates":[8.93987,45.87526]}}]}